#dP2021  9  7  0  0  0.00000000      97 __u+U IGS14 FIT  IAC
## 2174 172800.00000000   900.00000000 59464 0.0000000000000
+  122   C02C03C04C05C06C07C08C09C10C11C12C13C14C16C19C20C21
+        C22C23C24C25C26C27C28C29C30C32C33C34C35C36C37C38C39
+        C40C41C42C43C44C45C46C60E01E02E03E04E05E07E08E09E11
+        E12E13E14E15E18E19E21E24E25E26E27E30E31E33E36G01G02
+        G03G04G05G06G07G08G09G10G12G13G14G15G16G17G18G19G20
+        G21G22G23G24G25G26G27G28G29G30G31G32J01J02J03J07R01
+        R02R03R04R05R07R08R09R11R12R13R14R15R16R17R18R19R20
+        R21R22R24  0  0  0  0  0  0  0  0  0  0  0  0  0  0
++        13  0 13 12  8  9  8  8  9  8  8  9  8  8  7  7  7
++         7  7  7  7  7  6  6  7  6  7  7  7  7  7  7  8  7
++         7  7  7  7  7  7  7 17  4  4  4  4  4  4  4  4  4
++         4  4  4  4  5  4  4  4  4  4  4  4  4  4  4  3  3
++         3  3  4  3  3  3  3  3  3  4  3  4  3  3  3  3  4
++         3  3  3  3  3  3  3  4  3  3  3  3  9  8  8 14  7
++         6  5  5  5  5  5  5  7  5  7  5  6  6  6  5  7  7
++         5  7  5  0  0  0  0  0  0  0  0  0  0  0  0  0  0
%c M  cc GPS ccc cccc cccc cccc cccc ccccc ccccc ccccc ccccc
%c cc cc ccc ccc cccc cccc cccc cccc ccccc ccccc ccccc ccccc
%f  1.2500000  1.025000000  0.00000000000  0.000000000000000
%f  0.0000000  0.000000000  0.00000000000  0.000000000000000
%i    0    0    0    0      0      0      0      0         0
%i    0    0    0    0      0      0      0      0         0
/* INFORMATION & ANALYSIS CENTER (IAC)            FINAL DATA
/* S/V CLOCKS ARE ALIGNED TO GNSS TIME                      
/* G:C1WC2W R:C1PC2P E:C1XC5X C:C2IC6I J:C1CC2S             
/* PCV:IGS14_2163 OL/AL:FES2004  NONE     YN ORB:CoN CLK:CoN
*  2021 09 07 10 45  0.00000000
PC02   4444.893378  41962.240608    526.847480    355.963692
PC03      0.000000      0.000000      0.000000 999999.999999
PC04 -39644.232420  14380.339737   -677.897242    150.864088
PC05  21828.030624  36083.572545    884.363262     88.940181
PC06  -3487.515182  25783.701236  33202.842299    863.933989
PC07 -18144.394218  32502.248564 -19924.146828    -75.494151
PC08  -5504.416988  40378.919298 -10519.410360   -938.172834
PC09   6703.448627  29716.536769  29648.281291    -87.275017
PC10 -11912.682830  32499.360414 -24132.863397     -2.028522
PC11  21500.589162  17474.680740  -3035.190854    561.315939
PC12   7363.121933  19639.588282 -18358.484398    763.421875
PC13    -44.099632  41941.196136  -2562.749528    400.795557
PC14  15456.634215   8898.169730  21464.506260    663.175272
PC16  -5642.174083  24285.091453  34162.524275   -821.041295
PC19 -22619.673590  -1199.033901 -16293.558306    965.577404
PC20  -7745.056683 -13830.909992 -22959.826838   -805.985230
PC21 -12683.109348  18866.481190  16209.566532   -933.825202
PC22 -24958.394594  12518.812367     36.733890   -950.963191
PC23  15143.506310 -12365.464015 -19898.760512   -961.337548
PC24   5740.238897  25255.651174 -10355.812172   -964.995572
PC25  15334.134721   8016.527812 -21890.083993   -858.577967
PC26  -5323.357796  26744.866392   5836.320323    853.464653
PC27   2525.811822 -16782.395961  22130.419506    593.422677
PC28  19203.083552  -3528.907136  19934.824955    -29.367617
PC29 -25009.467189 -10837.028373  -6006.461702    443.849272
PC30 -15827.097588 -19677.002884  11854.830658    479.864667
PC32  12571.930661 -18954.145645 -16154.553052   -941.471904
PC33  22562.032438   1196.560898  16365.879409   -970.253940
PC34  16444.607628  19610.229529 -11154.865052   -587.550099
PC35 -19367.656560   3924.338943 -19700.666132   -103.519667
PC36 -15051.630445  -8837.411438  21806.549736   -755.097636
PC37   6514.641114 -26299.316557  -6698.910223   -863.701193
PC38 -10024.436643  37268.095798 -16759.605130    173.816332
PC39 -12002.657862  20914.208645  34577.790718     33.100021
PC40 -25273.154749  27715.717908 -19407.342247    197.197667
PC41  25021.925174 -12355.566288    361.569116   -942.443757
PC42   6859.200219  14365.459108  22956.440735   -948.286156
PC43  24920.782965  11343.296721   5422.906308   -903.361035
PC44  -2214.474016  16897.527550 -22112.616424    379.673422
PC45 -14990.755807  12550.320176  19917.506801    541.226908
PC46  -6443.971854 -24674.905851  11385.390344     96.395681
PC60   7276.340751  41501.627013  -1575.543334 999999.999999
PE01  12455.265919 -26402.089272   4910.579334   -469.485146
PE02 -12368.449992  26410.256319  -5025.064083    245.192044
PE03  -9119.780081  16085.509731  23113.582369   -472.040946
PE04 -13192.913870 -15524.504039 -21472.283222   -851.533523
PE05 -26435.208810   7207.343283  11205.442841   -251.230878
PE07  28146.815448   5768.052228   7094.038118   -582.956710
PE08  13635.653457  15233.018540  21398.752050   5941.633638
PE09 -28260.477505  -5473.653904  -6936.500769   5539.908014
PE11 -20113.030556 -13885.591227 -16707.471700   5464.170234
PE12 -13272.797440 -26396.428660   1734.181388   5021.776142
PE13  20087.423012  14305.802136  16366.385250    421.206611
PE14 -29218.686285   1760.089517 -11056.567697  -1562.371245
PE15  13358.332349  26353.237559  -1744.837837    793.682288
PE18  24563.157443   5762.087160   1304.882557  -1714.466002
PE19  11722.828784 -15336.734521 -22437.597116    371.563499
PE21  20605.820282 -16978.927496 -12769.260842   -686.507517
PE24 -16828.884693  -3884.624445  24033.642856  -1104.685669
PE25 -20651.159002  16780.135605  12980.584498   -545.822720
PE26  14621.354352  -7151.699989  24721.619919   1371.870849
PE27  17294.495486   2714.327546 -23856.606145   -115.041153
PE30   2845.484615  21437.164474 -20205.944889   2639.366775
PE31  -3851.987045 -20667.888258  20852.452981   -485.312910
PE33   1219.625127 -22849.245847  18779.107313   -465.280357
PE36 -14980.334601   6112.382784 -24788.525465   -259.067678
PG01  15244.807350    705.099920  21509.394717    574.733665
PG02 -14100.465005 -21232.489477  -6674.768047   -630.947823
PG03  20469.543351  -8096.604360  14684.693414   -280.991057
PG04  25128.248173   -359.847648  -8695.110922   -204.299989
PG05 -15694.515214  -4324.343883 -21178.200223    -53.621178
PG06  -5697.030397 -25577.675148   4196.445477     69.876245
PG07   9180.462515 -15429.727307 -19039.873533    240.554295
PG08  25849.783790   6352.214387  -2455.248589    -35.562814
PG09  17851.421753  -9319.005663 -17398.766318   -360.533393
PG10  -9084.211695  22171.167905  11266.208019   -198.307142
PG12 -20813.446637   6251.479785  14928.319914    -93.926044
PG13 -21490.392271 -13405.447367  -8386.227347    182.099395
PG14   9850.847185 -21890.205534  11309.084143      6.615015
PG15 -26378.999126  -3888.156192  -2500.353688   -122.843405
PG16  11492.343024   9861.958400 -22082.725299   -386.566759
PG17   4379.471247 -14309.926748  22375.422307    501.109619
PG18  -7736.897676  17464.755943 -18428.131083    325.019687
PG19  -5882.076608 -15978.729642  20154.818921     49.782342
PG20  -7784.137268 -15371.336541 -20303.648780    519.260645
PG21  17888.531327   8565.906057  18608.365412    141.446105
PG22  18257.073708  -1091.660720  19367.290851   -519.160373
PG23 -16872.983978  20462.113323    124.183593     60.630535
PG24 -17522.045899  -5051.848534  19180.499369    228.941721
PG25 -20023.531344  15707.333263   6828.734857    204.258558
PG26   1914.169155  19073.126024 -18324.619141    131.496568
PG27  20676.344814  12279.074141 -11856.565196   -189.497991
PG28   4653.693023 -20406.623988  17013.793223    505.656195
PG29 -20365.806147   5562.593365 -16200.843074   -408.043415
PG30   1128.874572 -23890.824346 -11222.759643   -470.393419
PG31   6600.134613  25388.799847   1820.197953   -138.469006
PG32    188.306071  15541.850340  21666.478563      1.608873
PJ01 -30049.101341  26304.178563  18388.370271     59.351731
PJ02 -32420.355447  25501.967201  13729.268210     -2.216155
PJ03 -24757.013741  17238.342489 -24887.256769     -1.694879
PJ07 -25391.238566  33662.728361     52.685921      0.048930
PR01   3620.214904 -12238.042932 -22087.377156     84.982077
PR02 -16879.733107  -4388.004147 -18550.093392    492.435108
PR03 -24667.440425   5238.737522  -3605.846330     42.528126
PR04 -18521.557198  11612.807799  13158.938177    103.610330
PR05  -2110.329202  11581.162957  22632.405254     78.527021
PR07  24748.709836  -5517.277823   3032.504492    -41.332446
PR08  18503.710072 -11689.317829 -13071.165510    -60.813107
PR09   7546.581862  12736.649327 -20770.069940     11.999752
PR11   9953.744851 -21051.835176 -10378.919165     48.029299
PR12   2042.985617 -24180.908136   7920.079743    260.003936
PR13  -6959.615584 -13407.710475  20545.035472    -60.242715
PR14 -12229.487078   6163.703411  21543.205972     68.526394
PR15 -10133.559226  21255.778498   9839.723049    101.623085
PR16   -748.197370  23795.988486  -8995.573461    -20.987315
PR17 -17577.350293  -6087.870875 -17474.278592    456.464582
PR18  -6804.240064   7937.916232 -23256.565257     89.603751
PR19   6244.018505  17610.327466 -17361.492861   -158.422341
PR20  18004.451443  18056.436295   1157.437496    -55.466118
PR21  16927.560594   5080.663820  18372.987949   -237.406651
PR22   6100.424931  -8543.596866  23226.973777   -131.962541
PR24 -18543.477897 -17437.014122  -1841.089922     57.648508
EOF
